CCSDS_OMM_VERS = 2.0
CREATION_DATE  = 
ORIGINATOR     = 

OBJECT_NAME    = ISS (ZARYA)
OBJECT_ID      = 1998-067A
CENTER_NAME    = EARTH
REF_FRAME      = TEME
TIME_SYSTEM    = UTC
MEAN_ELEMENT_THEORY = SGP/SGP4

EPOCH          = 2025-11-05T21:43:52.717728
MEAN_MOTION    = 15.49778705
ECCENTRICITY   = .00051051
INCLINATION    = 51.6335
RA_OF_ASC_NODE = 324.8242
ARG_OF_PERICENTER = 21.4827
MEAN_ANOMALY   = 338.6376

EPHEMERIS_TYPE = 0
CLASSIFICATION_TYPE = U
NORAD_CAT_ID   = 25544
ELEMENT_SET_NO = 999
REV_AT_EPOCH   = 53714
BSTAR          = .20455211E-3
MEAN_MOTION_DOT = .11147E-3
MEAN_MOTION_DDOT = 0

CCSDS_OMM_VERS = 2.0
CREATION_DATE  = 
ORIGINATOR     = 

OBJECT_NAME    = CSS (TIANHE)
OBJECT_ID      = 2021-035A
CENTER_NAME    = EARTH
REF_FRAME      = TEME
TIME_SYSTEM    = UTC
MEAN_ELEMENT_THEORY = SGP/SGP4

EPOCH          = 2025-11-05T21:18:58.281120
MEAN_MOTION    = 15.60459509
ECCENTRICITY   = .00059993
INCLINATION    = 41.4669
RA_OF_ASC_NODE = 240.4931
ARG_OF_PERICENTER = 329.5295
MEAN_ANOMALY   = 30.5195

EPHEMERIS_TYPE = 0
CLASSIFICATION_TYPE = U
NORAD_CAT_ID   = 48274
ELEMENT_SET_NO = 999
REV_AT_EPOCH   = 25827
BSTAR          = .42093112E-3
MEAN_MOTION_DOT = .35479E-3
MEAN_MOTION_DDOT = 0

CCSDS_OMM_VERS = 2.0
CREATION_DATE  = 
ORIGINATOR     = 

OBJECT_NAME    = ISS (NAUKA)
OBJECT_ID      = 2021-066A
CENTER_NAME    = EARTH
REF_FRAME      = TEME
TIME_SYSTEM    = UTC
MEAN_ELEMENT_THEORY = SGP/SGP4

EPOCH          = 2025-11-05T21:43:52.717728
MEAN_MOTION    = 15.49778705
ECCENTRICITY   = .00051051
INCLINATION    = 51.6335
RA_OF_ASC_NODE = 324.8242
ARG_OF_PERICENTER = 21.4827
MEAN_ANOMALY   = 338.6376

EPHEMERIS_TYPE = 0
CLASSIFICATION_TYPE = U
NORAD_CAT_ID   = 49044
ELEMENT_SET_NO = 999
REV_AT_EPOCH   = 23044
BSTAR          = .20455211E-3
MEAN_MOTION_DOT = .11147E-3
MEAN_MOTION_DDOT = 0

CCSDS_OMM_VERS = 2.0
CREATION_DATE  = 
ORIGINATOR     = 

OBJECT_NAME    = FREGAT DEB
OBJECT_ID      = 2011-037PF
CENTER_NAME    = EARTH
REF_FRAME      = TEME
TIME_SYSTEM    = UTC
MEAN_ELEMENT_THEORY = SGP/SGP4

EPOCH          = 2025-11-05T03:48:58.180608
MEAN_MOTION    = 12.33810644
ECCENTRICITY   = .08867202
INCLINATION    = 51.6288
RA_OF_ASC_NODE = 310.5583
ARG_OF_PERICENTER = 142.8570
MEAN_ANOMALY   = 223.7127

EPHEMERIS_TYPE = 0
CLASSIFICATION_TYPE = U
NORAD_CAT_ID   = 49271
ELEMENT_SET_NO = 999
REV_AT_EPOCH   = 19729
BSTAR          = .89642953E-2
MEAN_MOTION_DOT = .4174E-4
MEAN_MOTION_DDOT = 0

CCSDS_OMM_VERS = 2.0
CREATION_DATE  = 
ORIGINATOR     = 

OBJECT_NAME    = CSS (WENTIAN)
OBJECT_ID      = 2022-085A
CENTER_NAME    = EARTH
REF_FRAME      = TEME
TIME_SYSTEM    = UTC
MEAN_ELEMENT_THEORY = SGP/SGP4

EPOCH          = 2025-11-05T21:18:58.281120
MEAN_MOTION    = 15.60459509
ECCENTRICITY   = .00059993
INCLINATION    = 41.4669
RA_OF_ASC_NODE = 240.4931
ARG_OF_PERICENTER = 329.5295
MEAN_ANOMALY   = 30.5195

EPHEMERIS_TYPE = 0
CLASSIFICATION_TYPE = U
NORAD_CAT_ID   = 53239
ELEMENT_SET_NO = 999
REV_AT_EPOCH   = 17384
BSTAR          = .42093112E-3
MEAN_MOTION_DOT = .35479E-3
MEAN_MOTION_DDOT = 0

CCSDS_OMM_VERS = 2.0
CREATION_DATE  = 
ORIGINATOR     = 

OBJECT_NAME    = CSS (MENGTIAN)
OBJECT_ID      = 2022-143A
CENTER_NAME    = EARTH
REF_FRAME      = TEME
TIME_SYSTEM    = UTC
MEAN_ELEMENT_THEORY = SGP/SGP4

EPOCH          = 2025-11-05T21:18:58.281120
MEAN_MOTION    = 15.60459509
ECCENTRICITY   = .00059993
INCLINATION    = 41.4669
RA_OF_ASC_NODE = 240.4931
ARG_OF_PERICENTER = 329.5295
MEAN_ANOMALY   = 30.5195

EPHEMERIS_TYPE = 0
CLASSIFICATION_TYPE = U
NORAD_CAT_ID   = 54216
ELEMENT_SET_NO = 999
REV_AT_EPOCH   = 15864
BSTAR          = .42093112E-3
MEAN_MOTION_DOT = .35479E-3
MEAN_MOTION_DDOT = 0

CCSDS_OMM_VERS = 2.0
CREATION_DATE  = 
ORIGINATOR     = 

OBJECT_NAME    = SOYUZ-MS 27
OBJECT_ID      = 2025-072A
CENTER_NAME    = EARTH
REF_FRAME      = TEME
TIME_SYSTEM    = UTC
MEAN_ELEMENT_THEORY = SGP/SGP4

EPOCH          = 2025-11-05T21:43:52.717728
MEAN_MOTION    = 15.49778705
ECCENTRICITY   = .00051051
INCLINATION    = 51.6335
RA_OF_ASC_NODE = 324.8242
ARG_OF_PERICENTER = 21.4827
MEAN_ANOMALY   = 338.6376

EPHEMERIS_TYPE = 0
CLASSIFICATION_TYPE = U
NORAD_CAT_ID   = 63520
ELEMENT_SET_NO = 999
REV_AT_EPOCH   = 2020
BSTAR          = .20455211E-3
MEAN_MOTION_DOT = .11147E-3
MEAN_MOTION_DDOT = 0

CCSDS_OMM_VERS = 2.0
CREATION_DATE  = 
ORIGINATOR     = 

OBJECT_NAME    = SHENZHOU-20 (SZ-20)
OBJECT_ID      = 2025-082A
CENTER_NAME    = EARTH
REF_FRAME      = TEME
TIME_SYSTEM    = UTC
MEAN_ELEMENT_THEORY = SGP/SGP4

EPOCH          = 2025-11-05T21:18:58.281120
MEAN_MOTION    = 15.60459509
ECCENTRICITY   = .00059993
INCLINATION    = 41.4669
RA_OF_ASC_NODE = 240.4931
ARG_OF_PERICENTER = 329.5295
MEAN_ANOMALY   = 30.5195

EPHEMERIS_TYPE = 0
CLASSIFICATION_TYPE = U
NORAD_CAT_ID   = 63632
ELEMENT_SET_NO = 999
REV_AT_EPOCH   = 25530
BSTAR          = .42093112E-3
MEAN_MOTION_DOT = .35479E-3
MEAN_MOTION_DDOT = 0

CCSDS_OMM_VERS = 2.0
CREATION_DATE  = 
ORIGINATOR     = 

OBJECT_NAME    = PROGRESS-MS 31
OBJECT_ID      = 2025-146A
CENTER_NAME    = EARTH
REF_FRAME      = TEME
TIME_SYSTEM    = UTC
MEAN_ELEMENT_THEORY = SGP/SGP4

EPOCH          = 2025-11-05T21:43:52.717728
MEAN_MOTION    = 15.49778705
ECCENTRICITY   = .00051051
INCLINATION    = 51.6335
RA_OF_ASC_NODE = 324.8242
ARG_OF_PERICENTER = 21.4827
MEAN_ANOMALY   = 338.6376

EPHEMERIS_TYPE = 0
CLASSIFICATION_TYPE = U
NORAD_CAT_ID   = 64751
ELEMENT_SET_NO = 999
REV_AT_EPOCH   = 675
BSTAR          = .20455211E-3
MEAN_MOTION_DOT = .11147E-3
MEAN_MOTION_DDOT = 0

CCSDS_OMM_VERS = 2.0
CREATION_DATE  = 
ORIGINATOR     = 

OBJECT_NAME    = TIANZHOU-9
OBJECT_ID      = 2025-149A
CENTER_NAME    = EARTH
REF_FRAME      = TEME
TIME_SYSTEM    = UTC
MEAN_ELEMENT_THEORY = SGP/SGP4

EPOCH          = 2025-11-05T21:18:58.281120
MEAN_MOTION    = 15.60459509
ECCENTRICITY   = .00059993
INCLINATION    = 41.4669
RA_OF_ASC_NODE = 240.4931
ARG_OF_PERICENTER = 329.5295
MEAN_ANOMALY   = 30.5195

EPHEMERIS_TYPE = 0
CLASSIFICATION_TYPE = U
NORAD_CAT_ID   = 64786
ELEMENT_SET_NO = 999
REV_AT_EPOCH   = 25530
BSTAR          = .42093112E-3
MEAN_MOTION_DOT = .35479E-3
MEAN_MOTION_DDOT = 0

CCSDS_OMM_VERS = 2.0
CREATION_DATE  = 
ORIGINATOR     = 

OBJECT_NAME    = CREW DRAGON 11
OBJECT_ID      = 2025-166A
CENTER_NAME    = EARTH
REF_FRAME      = TEME
TIME_SYSTEM    = UTC
MEAN_ELEMENT_THEORY = SGP/SGP4

EPOCH          = 2025-11-05T21:43:52.717728
MEAN_MOTION    = 15.49778705
ECCENTRICITY   = .00051051
INCLINATION    = 51.6335
RA_OF_ASC_NODE = 324.8242
ARG_OF_PERICENTER = 21.4827
MEAN_ANOMALY   = 338.6376

EPHEMERIS_TYPE = 0
CLASSIFICATION_TYPE = U
NORAD_CAT_ID   = 65077
ELEMENT_SET_NO = 999
REV_AT_EPOCH   = 214
BSTAR          = .20455211E-3
MEAN_MOTION_DOT = .11147E-3
MEAN_MOTION_DDOT = 0

CCSDS_OMM_VERS = 2.0
CREATION_DATE  = 
ORIGINATOR     = 

OBJECT_NAME    = DRAGON CRS-33
OBJECT_ID      = 2025-186A
CENTER_NAME    = EARTH
REF_FRAME      = TEME
TIME_SYSTEM    = UTC
MEAN_ELEMENT_THEORY = SGP/SGP4

EPOCH          = 2025-11-05T21:43:52.717728
MEAN_MOTION    = 15.49778705
ECCENTRICITY   = .00051051
INCLINATION    = 51.6335
RA_OF_ASC_NODE = 324.8242
ARG_OF_PERICENTER = 21.4827
MEAN_ANOMALY   = 338.6376

EPHEMERIS_TYPE = 0
CLASSIFICATION_TYPE = U
NORAD_CAT_ID   = 65304
ELEMENT_SET_NO = 999
REV_AT_EPOCH   = 11
BSTAR          = .20455211E-3
MEAN_MOTION_DOT = .11147E-3
MEAN_MOTION_DDOT = 0

