ISS (ZARYA)             
1 25544U 98067A   25309.90547127  .00011147  00000+0  20455-3 0  9996
2 25544  51.6335 324.8242 0005105  21.4827 338.6376 15.49778705537144
CSS (TIANHE)            
1 48274U 21035A   25309.88817455  .00035479  00000+0  42093-3 0  9999
2 48274  41.4669 240.4931 0005999 329.5295  30.5195 15.60459509258278
ISS (NAUKA)             
1 49044U 21066A   25309.90547127  .00011147  00000+0  20455-3 0  9992
2 49044  51.6335 324.8242 0005105  21.4827 338.6376 15.49778705230448
FREGAT DEB              
1 49271U 11037PF  25309.15900672  .00004174  00000+0  89643-2 0  9991
2 49271  51.6288 310.5583 0886720 142.8570 223.7127 12.33810644197292
CSS (WENTIAN)           
1 53239U 22085A   25309.88817455  .00035479  00000+0  42093-3 0  9992
2 53239  41.4669 240.4931 0005999 329.5295  30.5195 15.60459509173844
CSS (MENGTIAN)          
1 54216U 22143A   25309.88817455  .00035479  00000+0  42093-3 0  9993
2 54216  41.4669 240.4931 0005999 329.5295  30.5195 15.60459509158641
SOYUZ-MS 27             
1 63520U 25072A   25309.90547127  .00011147  00000+0  20455-3 0  9998
2 63520  51.6335 324.8242 0005105  21.4827 338.6376 15.49778705 20204
SHENZHOU-20 (SZ-20)     
1 63632U 25082A   25309.88817455  .00035479  00000+0  42093-3 0  9990
2 63632  41.4669 240.4931 0005999 329.5295  30.5195 15.60459509255304
PROGRESS-MS 31          
1 64751U 25146A   25309.90547127  .00011147  00000+0  20455-3 0  9997
2 64751  51.6335 324.8242 0005105  21.4827 338.6376 15.49778705  6755
TIANZHOU-9              
1 64786U 25149A   25309.88817455  .00035479  00000+0  42093-3 0  9995
2 64786  41.4669 240.4931 0005999 329.5295  30.5195 15.60459509255305
CREW DRAGON 11          
1 65077U 25166A   25309.90547127  .00011147  00000+0  20455-3 0  9991
2 65077  51.6335 324.8242 0005105  21.4827 338.6376 15.49778705  2146
DRAGON CRS-33           
1 65304U 25186A   25309.90547127  .00011147  00000+0  20455-3 0  9996
2 65304  51.6335 324.8242 0005105  21.4827 338.6376 15.49778705   114
